CSTP-2.2
1 61775U 24199AS  25163.18508826  .00009728  00000-0  31853-3 0  9995
2 61775  97.3546  31.2411 0017922 168.0838 192.0832 15.31719990 77306
SITRO-AIS-40
1 61776U 24199AT  25163.18790669  .00015729  00000-0  47649-3 0  9992
2 61776  97.3506  31.7437 0012759 183.8971 176.2175 15.34161902 80497
CSTP-2.1
1 61777U 24199AU  25163.18420291  .00009849  00000-0  32122-3 0  9990
2 61777  97.3543  31.2369 0017956 168.2670 191.8994 15.31843972 77304
SITRO-AIS-39
1 61778U 24199AV  25163.17112644  .00015204  00000-0  46975-3 0  9993
2 61778  97.3508  31.6170 0012836 184.6172 175.4954 15.33541481 77330
ALTAIR (RS65S)
1 61779U 24199AW  25163.15733210  .00006685  00000-0  23941-3 0  9991
2 61779  97.3552  30.9830 0015418 181.7691 178.3498 15.28974071 80437
SITRO-AIS-37
1 61780U 24199AX  25163.16350156  .00015778  00000-0  48454-3 0  9997
2 61780  97.3517  31.6513 0013081 184.9241 175.1875 15.33722129 77336
ASRTU-1 (RS64S/BJ2CR)
1 61781U 24199AY  25163.19884748  .00006420  00000-0  23411-3 0  9990
2 61781  97.3542  30.9117 0015699 182.1044 178.0133 15.28392362 77284
TUSUR GO (RS78S)
1 61782U 24199AZ  25163.19321973  .00023128  00000-0  64298-3 0  9999
2 61782  97.3522  32.0995 0014188 174.6875 185.4522 15.36758767 77367
ZIMSAT-2 (Z2AS)
1 61783U 24199BA  25163.19593045  .00034505  00000-0  83870-3 0  9999
2 61783  97.3504  32.6813 0013990 171.8523 188.2953 15.40808982 80556
SAMSAT-IONOSPHERE (RS75S)
1 61784U 24199BB  25163.18266471  .00015610  00000-0  48224-3 0  9999
2 61784  97.3535  31.6773 0014884 177.9650 182.1656 15.33510311 80489
RTU MIREA-1 (RS51S)
1 61785U 24199BC  25163.15390286  .00016208  00000-0  49358-3 0  9992
2 61785  97.3533  31.7130 0014659 176.6446 183.4898 15.33962676 77332
SITRO-AIS-38
1 61786U 24199BD  25163.17731673  .00015506  00000-0  47921-3 0  9998
2 61786  97.3511  31.6187 0012980 185.6077 174.5023 15.33527625 77337
2024-199BE (? SWSU-60)
1 61787U 24199BE  25163.20036901  .00006673  00000-0  24209-3 0  9994
2 61787  97.3549  30.9204 0015820 181.7366 178.3822 15.28546263 80432
SITRO-AIS-45
1 61788U 24199BF  25163.16216872  .00015177  00000-0  46773-3 0  9996
2 61788  97.3504  31.6154 0012755 184.4875 175.6255 15.33623923 77313
SITRO-AIS-17
1 61789U 24199BG  25163.16232491  .00002563  00000-0  23757-3 0  9994
2 61789  97.3588  20.6117 0004798 235.1600 124.9171 14.95272085 76691
SITRO-AIS-18
1 61790U 24199BH  25163.16577743  .00002271  00000-0  21121-3 0  9997
2 61790  97.3585  20.5976 0004727 232.6882 127.3909 14.95237428 76696
